GLOBALSTAR M035         
1 25851U 99037A   25157.79782189 -.00000097  00000+0 -12647-2 0  9999
2 25851  51.9954  78.1330 0014128 326.6753  65.1330 11.04538823 95115
GLOBALSTAR M032         
1 25852U 99037B   25157.61325463 -.00000069  00000+0 -85563-4 0  9997
2 25852  51.9954 264.4741 0012663 148.6248 211.5310 11.19060984133601
GLOBALSTAR M051         
1 25853U 99037C   25157.81570837 -.00000080  00000+0 -20879-3 0  9998
2 25853  51.9807  65.9104 0000298 137.0142 223.0691 11.42205128131203
GLOBALSTAR M030         
1 25854U 99037D   25157.87297223 -.00000106  00000+0 -65578-3 0  9994
2 25854  51.9866 232.5371 0002839  30.1270 329.9710 11.55109204148854
GLOBALSTAR M048         
1 25872U 99041A   25157.87794062 -.00000056  00000+0  38131-3 0  9990
2 25872  51.9395   0.3971 0013455 163.6932 208.9168 11.33857086123817
GLOBALSTAR M026         
1 25873U 99041B   25157.88150814 -.00000022  00000+0  15422-2 0  9993
2 25873  51.9971 196.0180 0002453 250.6063 280.9364 11.06841497147342
GLOBALSTAR M043         
1 25874U 99041C   25157.87074383 -.00000087  00000+0 -54800-3 0  9995
2 25874  51.9386 107.6459 0013667 296.1144  97.1029 11.25694384121715
GLOBALSTAR M028         
1 25875U 99041D   25157.92286258 -.00000060  00000+0  26123-3 0  9995
2 25875  51.9609 223.6732 0063265  49.5616 311.0739 12.50583387188897
